{"type": "FeatureCollection", "features": [ {"type": "Feature", "properties": {"norad_id": 66584, "name": "STARLINK-35939", "group": "last-30-days", "lat": 13.128742753979353, "lon": 75.72346845769736, "alt_km": 396.13184094014923, "timestamp": "2025-12-22T22:44:19.648815+00:00", "meta": {"OBJECT_NAME": "STARLINK-35939", "OBJECT_ID": "2025-268AD", "EPOCH": "2025-12-22T14:00:01.999872", "MEAN_MOTION": 15.56365737, "ECCENTRICITY": 0.00016162, "INCLINATION": 43.0006, "RA_OF_ASC_NODE": 63.3776, "ARG_OF_PERICENTER": 281.293, "MEAN_ANOMALY": 215.7732, "EPHEMERIS_TYPE": 0, "CLASSIFICATION_TYPE": "U", "NORAD_CAT_ID": 66584, "ELEMENT_SET_NO": 999, "REV_AT_EPOCH": 599, "BSTAR": 0.00045188786, "MEAN_MOTION_DOT": 0.00032492, "MEAN_MOTION_DDOT": 0}, "tle": {"line1": "1 66584U 25268AD  25356.58335648  .00032492  00000+0  45189-3 0  9994", "line2": "2 66584  43.0006  63.3776 0001616 281.2930 215.7732 15.56365737  5993"}}, "geometry": {"type": "Point", "coordinates": [75.72346845769736, 13.128742753979353]}}, {"type": "Feature", "properties": {"norad_id": 66585, "name": "STARLINK-35963", "group": "last-30-days", "lat": 0.8099341844965643, "lon": 62.14320516154372, "alt_km": 418.04617154951757, "timestamp": "2025-12-22T22:44:19.648826+00:00", "meta": {"OBJECT_NAME": "STARLINK-35963", "OBJECT_ID": "2025-268AE", "EPOCH": "2025-12-22T14:00:01.999872", "MEAN_MOTION": 15.50929664, "ECCENTRICITY": 0.00012369, "INCLINATION": 43.0001, "RA_OF_ASC_NODE": 63.4026, "ARG_OF_PERICENTER": 292.6637, "MEAN_ANOMALY": 194.357, "EPHEMERIS_TYPE": 0, "CLASSIFICATION_TYPE": "U", "NORAD_CAT_ID": 66585, "ELEMENT_SET_NO": 999, "REV_AT_EPOCH": 599, "BSTAR": -0.03807568, "MEAN_MOTION_DOT": -0.02018455, "MEAN_MOTION_DDOT": 0}, "tle": {"line1": "1 66585U 25268AE  25356.58335648 -.02018455  00000+0 -38076-1 0  9997", "line2": "2 66585  43.0001  63.4026 0001236 292.6637 194.3570 15.50929664  5997"}}, "geometry": {"type": "Point", "coordinates": [62.14320516154372, 0.8099341844965643]}}, {"type": "Feature", "properties": {"norad_id": 66586, "name": "TJS-21", "group": "last-30-days", "lat": 62.79460489000418, "lon": -97.39788553915089, "alt_km": 37827.030840033985, "timestamp": "2025-12-22T22:44:19.648839+00:00", "meta": {"OBJECT_NAME": "TJS-21", "OBJECT_ID": "2025-269A", "EPOCH": "2025-12-18T16:58:10.473888", "MEAN_MOTION": 2.00580748, "ECCENTRICITY": 0.6806869, "INCLINATION": 63.2733, "RA_OF_ASC_NODE": 161.7218, "ARG_OF_PERICENTER": 269.7428, "MEAN_ANOMALY": 18.6663, "EPHEMERIS_TYPE": 0, "CLASSIFICATION_TYPE": "U", "NORAD_CAT_ID": 66586, "ELEMENT_SET_NO": 999, "REV_AT_EPOCH": 55, "BSTAR": -0.059507049, "MEAN_MOTION_DOT": 1.084e-05, "MEAN_MOTION_DDOT": 0}, "tle": {"line1": "1 66586U 25269A   25352.70706567  .00001084  00000+0 -59507-1 0  9990", "line2": "2 66586  63.2733 161.7218 6806869 269.7428  18.6663  2.00580748   558"}}, "geometry": {"type": "Point", "coordinates": [-97.39788553915089, 62.79460489000418]}}, {"type": "Feature", "properties": {"norad_id": 66588, "name": "STARLINK-36076", "group": "last-30-days", "lat": 2.1166774597787015, "lon": -48.31142987581577, "alt_km": 443.65839692869577, "timestamp": "2025-12-22T22:44:19.648853+00:00", "meta": {"OBJECT_NAME": "STARLINK-36076", "OBJECT_ID": "2025-270A", "EPOCH": "2025-12-22T09:31:42.013056", "MEAN_MOTION": 15.40739051, "ECCENTRICITY": 0.00015719, "INCLINATION": 42.9975, "RA_OF_ASC_NODE": 137.135, "ARG_OF_PERICENTER": 284.4298, "MEAN_ANOMALY": 75.6384, "EPHEMERIS_TYPE": 0, "CLASSIFICATION_TYPE": "U", "NORAD_CAT_ID": 66588, "ELEMENT_SET_NO": 999, "REV_AT_EPOCH": 583, "BSTAR": 0.0010811349, "MEAN_MOTION_DOT": 0.00045185, "MEAN_MOTION_DDOT": 0}, "tle": {"line1": "1 66588U 25270A   25356.39701404  .00045185  00000+0  10811-2 0  9993", "line2": "2 66588  42.9975 137.1350 0001571 284.4298  75.6384 15.40739051  5836"}}, "geometry": {"type": "Point", "coordinates": [-48.31142987581577, 2.1166774597787015]}}, {"type": "Feature", "properties": {"norad_id": 66589, "name": "STARLINK-35447", "group": "last-30-days", "lat": -42.66605638041297, "lon": 52.20239641227981, "alt_km": 446.40193070647274, "timestamp": "2025-12-22T22:44:19.648864+00:00", "meta": {"OBJECT_NAME": "STARLINK-35447", "OBJECT_ID": "2025-270B", "EPOCH": "2025-12-22T13:45:57.028608", "MEAN_MOTION": 15.40702177, "ECCENTRICITY": 0.00014309, "INCLINATION": 43.0005, "RA_OF_ASC_NODE": 135.8752, "ARG_OF_PERICENTER": 269.8886, "MEAN_ANOMALY": 90.1807, "EPHEMERIS_TYPE": 0, "CLASSIFICATION_TYPE": "U", "NORAD_CAT_ID": 66589, "ELEMENT_SET_NO": 999, "REV_AT_EPOCH": 597, "BSTAR": 0.00025552084, "MEAN_MOTION_DOT": 0.00010385, "MEAN_MOTION_DDOT": 0}, "tle": {"line1": "1 66589U 25270B   25356.57357672  .00010385  00000+0  25552-3 0  9991", "line2": "2 66589  43.0005 135.8752 0001430 269.8886  90.1807 15.40702177  5974"}}, "geometry": {"type": "Point", "coordinates": [52.20239641227981, -42.66605638041297]}}, {"type": "Feature", "properties": {"norad_id": 66590, "name": "STARLINK-35429", "group": "last-30-days", "lat": 2.300185122661033, "lon": 135.97856161133265, "alt_km": 443.08401909484746, "timestamp": "2025-12-22T22:44:19.648875+00:00", "meta": {"OBJECT_NAME": "STARLINK-35429", "OBJECT_ID": "2025-270C", "EPOCH": "2025-12-22T02:29:54.193344", "MEAN_MOTION": 15.40715524, "ECCENTRICITY": 0.00013972, "INCLINATION": 43.0006, "RA_OF_ASC_NODE": 138.3695, "ARG_OF_PERICENTER": 278.0769, "MEAN_ANOMALY": 81.9929, "EPHEMERIS_TYPE": 0, "CLASSIFICATION_TYPE": "U", "NORAD_CAT_ID": 66590, "ELEMENT_SET_NO": 999, "REV_AT_EPOCH": 590, "BSTAR": 0.0010272237, "MEAN_MOTION_DOT": 0.0004287, "MEAN_MOTION_DDOT": 0}, "tle": {"line1": "1 66590U 25270C   25356.10409946  .00042870  00000+0  10272-2 0  9990", "line2": "2 66590  43.0006 138.3695 0001397 278.0769  81.9929 15.40715524  5901"}}, "geometry": {"type": "Point", "coordinates": [135.97856161133265, 2.300185122661033]}}, {"type": "Feature", "properties": {"norad_id": 66591, "name": "STARLINK-36058", "group": "last-30-days", "lat": 42.978716302466424, "lon": -136.24239703878698, "alt_km": 438.08835332543003, "timestamp": "2025-12-22T22:44:19.648886+00:00", "meta": {"OBJECT_NAME": "STARLINK-36058", "OBJECT_ID": "2025-270D", "EPOCH": "2025-12-22T14:00:01.999872", "MEAN_MOTION": 15.40685666, "ECCENTRICITY": 0.00015712, "INCLINATION": 42.9999, "RA_OF_ASC_NODE": 135.3981, "ARG_OF_PERICENTER": 304.8784, "MEAN_ANOMALY": 283.6078, "EPHEMERIS_TYPE": 0, "CLASSIFICATION_TYPE": "U", "NORAD_CAT_ID": 66591, "ELEMENT_SET_NO": 999, "REV_AT_EPOCH": 598, "BSTAR": 0.00033639586, "MEAN_MOTION_DOT": 0.00013767, "MEAN_MOTION_DDOT": 0}, "tle": {"line1": "1 66591U 25270D   25356.58335648  .00013767  00000+0  33640-3 0  9998", "line2": "2 66591  42.9999 135.3981 0001571 304.8784 283.6078 15.40685666  5982"}}, "geometry": {"type": "Point", "coordinates": [-136.24239703878698, 42.978716302466424]}}, {"type": "Feature", "properties": {"norad_id": 66592, "name": "STARLINK-36066", "group": "last-30-days", "lat": -29.678160612658772, "lon": -8.459032459692247, "alt_km": 444.8442661580739, "timestamp": "2025-12-22T22:44:19.648897+00:00", "meta": {"OBJECT_NAME": "STARLINK-36066", "OBJECT_ID": "2025-270E", "EPOCH": "2025-12-22T03:05:22.945056", "MEAN_MOTION": 15.40707786, "ECCENTRICITY": 0.0003425, "INCLINATION": 43.0004, "RA_OF_ASC_NODE": 138.5584, "ARG_OF_PERICENTER": 263.6107, "MEAN_ANOMALY": 96.436, "EPHEMERIS_TYPE": 0, "CLASSIFICATION_TYPE": "U", "NORAD_CAT_ID": 66592, "ELEMENT_SET_NO": 999, "REV_AT_EPOCH": 569, "BSTAR": 0.00070293192, "MEAN_MOTION_DOT": 0.00029183, "MEAN_MOTION_DDOT": 0}, "tle": {"line1": "1 66592U 25270E   25356.12873779  .00029183  00000+0  70293-3 0  9995", "line2": "2 66592  43.0004 138.5584 0003425 263.6107  96.4360 15.40707786  5697"}}, "geometry": {"type": "Point", "coordinates": [-8.459032459692247, -29.678160612658772]}}, {"type": "Feature", "properties": {"norad_id": 66593, "name": "STARLINK-36031", "group": "last-30-days", "lat": -29.548983704621623, "lon": 96.1505392727703, "alt_km": 445.70883667832186, "timestamp": "2025-12-22T22:44:19.648907+00:00", "meta": {"OBJECT_NAME": "STARLINK-36031", "OBJECT_ID": "2025-270F", "EPOCH": "2025-12-22T02:42:48.560256", "MEAN_MOTION": 15.40728409, "ECCENTRICITY": 0.00011946, "INCLINATION": 42.9962, "RA_OF_ASC_NODE": 138.4375, "ARG_OF_PERICENTER": 279.7559, "MEAN_ANOMALY": 80.3162, "EPHEMERIS_TYPE": 0, "CLASSIFICATION_TYPE": "U", "NORAD_CAT_ID": 66593, "ELEMENT_SET_NO": 999, "REV_AT_EPOCH": 579, "BSTAR": 0.0010474943, "MEAN_MOTION_DOT": 0.00043745, "MEAN_MOTION_DDOT": 0}, "tle": {"line1": "1 66593U 25270F   25356.11306204  .00043745  00000+0  10475-2 0  9994", "line2": "2 66593  42.9962 138.4375 0001194 279.7559  80.3162 15.40728409  5794"}}, "geometry": {"type": "Point", "coordinates": [96.1505392727703, -29.548983704621623]}}, {"type": "Feature", "properties": {"norad_id": 66594, "name": "STARLINK-36032", "group": "last-30-days", "lat": 32.97515154494179, "lon": 177.51642018603616, "alt_km": 439.503944271175, "timestamp": "2025-12-22T22:44:19.648918+00:00", "meta": {"OBJECT_NAME": "STARLINK-36032", "OBJECT_ID": "2025-270G", "EPOCH": "2025-12-22T14:00:01.999872", "MEAN_MOTION": 15.40670349, "ECCENTRICITY": 0.00015131, "INCLINATION": 42.9999, "RA_OF_ASC_NODE": 135.4889, "ARG_OF_PERICENTER": 280.7465, "MEAN_ANOMALY": 270.4441, "EPHEMERIS_TYPE": 0, "CLASSIFICATION_TYPE": "U", "NORAD_CAT_ID": 66594, "ELEMENT_SET_NO": 999, "REV_AT_EPOCH": 571, "BSTAR": 0.00039863118, "MEAN_MOTION_DOT": 0.00016368, "MEAN_MOTION_DDOT": 0}, "tle": {"line1": "1 66594U 25270G   25356.58335648  .00016368  00000+0  39863-3 0  9994", "line2": "2 66594  42.9999 135.4889 0001513 280.7465 270.4441 15.40670349  5718"}}, "geometry": {"type": "Point", "coordinates": [177.51642018603616, 32.97515154494179]}}]}